KUIPER-00144            
1 67133U 25301A   26064.43077867  .00040609  00000+0  10652-2 0  9995
2 67133  51.8688  85.6838 0007750  17.5392 342.5861 15.38230459 13083
KUIPER-00164            
1 67134U 25301B   26064.91668981 -.01019157  00000+0 -55683-1 0  9991
2 67134  51.8856  84.8725 0004288  59.6666  34.7753 15.16833019  5900
KUIPER-00175            
1 67135U 25301C   26064.34472056  .00020328  00000+0  68341-3 0  9991
2 67135  51.8759  85.8896 0002132  34.9400 325.1724 15.30791713 13141
KUIPER-00179            
1 67136U 25301D   26064.91668981 -.01738186  00000+0 -10406+0 0  9995
2 67136  51.8819  84.3145 0002603  53.9041  15.3234 15.13790176  5750
KUIPER-00181            
1 67137U 25301E   26064.91668981  .00034468  00000+0  49218-2 0  9991
2 67137  51.9007  93.6904 0001903  89.8039 216.6023 14.76384473  5416
KUIPER-00183            
1 67138U 25301F   26064.91668981 -.01053979  00000+0 -37275-1 0  9992
2 67138  51.8654  84.1457 0015161  39.6835  48.8681 15.31236199  5609
KUIPER-00184            
1 67139U 25301G   26064.22110800  .00043949  00000+0  11905-2 0  9995
2 67139  51.8617  87.2132 0012398  34.4952 325.6837 15.37154182 13329
KUIPER-00186            
1 67140U 25301H   26064.52622436  .00014352  00000+0  19056-2 0  9994
2 67140  51.9022  96.5220 0000625 107.3495 252.7535 14.79977827 12941
KUIPER-00187            
1 67141U 25301J   26064.25331144 -.00005985  00000+0 -75641-3 0  9995
2 67141  51.9018 100.2399 0000674  95.6772 264.4268 14.79948764 12860
KUIPER-00188            
1 67142U 25301K   26064.32351322  .00049679  00000+0  13133-2 0  9997
2 67142  51.8688  86.4563 0010313  30.0208 330.1368 15.37876142 13069
KUIPER-00191            
1 67143U 25301L   26064.91668981  .00019118  00000+0  23332-2 0  9992
2 67143  51.8993  89.8993 0005407  47.5323 346.6765 14.83311024  4989
KUIPER-00196            
1 67144U 25301M   26064.34439602  .00048980  00000+0  12661-2 0  9998
2 67144  51.8700  85.8732 0003784   9.9788 350.1274 15.38615916 13079
KUIPER-00204            
1 67145U 25301N   26064.53376241  .00030475  00000+0  11787-2 0  9997
2 67145  51.8847  90.0007 0003051 332.4510  27.6310 15.25954009 13149
KUIPER-00210            
1 67146U 25301P   26064.91668981  .00033671  00000+0  40076-2 0  9999
2 67146  51.8992  89.9002 0010277  61.3796 133.9948 14.84024092  5665
KUIPER-00221            
1 67147U 25301Q   26064.08448849  .00004942  00000+0  67593-3 0  9990
2 67147  51.9008 100.9697 0000612 107.2753 252.8276 14.79985190 12846
KUIPER-00232            
1 67148U 25301R   26064.91668981 -.01543242  00000+0 -89909-1 0  9991
2 67148  51.8817  84.1464 0002759 131.7541 317.8024 15.14891154  5380
KUIPER-00241            
1 67149U 25301S   26064.91668981  .00013680  00000+0  18185-2 0  9996
2 67149  51.9011  92.2942 0001085  91.7702 356.5255 14.79964986  5788
