[{"OBJECT_NAME":"KUIPER-00144","OBJECT_ID":"2025-301A","EPOCH":"2026-03-05T10:20:19.277088","MEAN_MOTION":15.38230459,"ECCENTRICITY":0.000775,"INCLINATION":51.8688,"RA_OF_ASC_NODE":85.6838,"ARG_OF_PERICENTER":17.5392,"MEAN_ANOMALY":342.5861,"EPHEMERIS_TYPE":0,"CLASSIFICATION_TYPE":"U","NORAD_CAT_ID":67133,"ELEMENT_SET_NO":999,"REV_AT_EPOCH":1308,"BSTAR":0.0010652,"MEAN_MOTION_DOT":0.00040609,"MEAN_MOTION_DDOT":0},{"OBJECT_NAME":"KUIPER-00164","OBJECT_ID":"2025-301B","EPOCH":"2026-03-05T22:00:01.999584","MEAN_MOTION":15.16833019,"ECCENTRICITY":0.00042887,"INCLINATION":51.8856,"RA_OF_ASC_NODE":84.8725,"ARG_OF_PERICENTER":59.6666,"MEAN_ANOMALY":34.7753,"EPHEMERIS_TYPE":0,"CLASSIFICATION_TYPE":"U","NORAD_CAT_ID":67134,"ELEMENT_SET_NO":999,"REV_AT_EPOCH":590,"BSTAR":-0.055682886,"MEAN_MOTION_DOT":-0.01019157,"MEAN_MOTION_DDOT":0},{"OBJECT_NAME":"KUIPER-00175","OBJECT_ID":"2025-301C","EPOCH":"2026-03-05T08:16:23.856384","MEAN_MOTION":15.30791713,"ECCENTRICITY":0.0002132,"INCLINATION":51.8759,"RA_OF_ASC_NODE":85.8896,"ARG_OF_PERICENTER":34.94,"MEAN_ANOMALY":325.1724,"EPHEMERIS_TYPE":0,"CLASSIFICATION_TYPE":"U","NORAD_CAT_ID":67135,"ELEMENT_SET_NO":999,"REV_AT_EPOCH":1314,"BSTAR":0.00068341,"MEAN_MOTION_DOT":0.00020328,"MEAN_MOTION_DDOT":0},{"OBJECT_NAME":"KUIPER-00179","OBJECT_ID":"2025-301D","EPOCH":"2026-03-05T22:00:01.999584","MEAN_MOTION":15.13790176,"ECCENTRICITY":0.00026034,"INCLINATION":51.8819,"RA_OF_ASC_NODE":84.3145,"ARG_OF_PERICENTER":53.9041,"MEAN_ANOMALY":15.3234,"EPHEMERIS_TYPE":0,"CLASSIFICATION_TYPE":"U","NORAD_CAT_ID":67136,"ELEMENT_SET_NO":999,"REV_AT_EPOCH":575,"BSTAR":-0.1040601,"MEAN_MOTION_DOT":-0.01738186,"MEAN_MOTION_DDOT":0},{"OBJECT_NAME":"KUIPER-00181","OBJECT_ID":"2025-301E","EPOCH":"2026-03-05T22:00:01.999584","MEAN_MOTION":14.76384473,"ECCENTRICITY":0.0001903,"INCLINATION":51.9007,"RA_OF_ASC_NODE":93.6904,"ARG_OF_PERICENTER":89.8039,"MEAN_ANOMALY":216.6023,"EPHEMERIS_TYPE":0,"CLASSIFICATION_TYPE":"U","NORAD_CAT_ID":67137,"ELEMENT_SET_NO":999,"REV_AT_EPOCH":541,"BSTAR":0.0049218358,"MEAN_MOTION_DOT":0.00034468,"MEAN_MOTION_DDOT":0},{"OBJECT_NAME":"KUIPER-00183","OBJECT_ID":"2025-301F","EPOCH":"2026-03-05T22:00:01.999584","MEAN_MOTION":15.31236199,"ECCENTRICITY":0.00151617,"INCLINATION":51.8654,"RA_OF_ASC_NODE":84.1457,"ARG_OF_PERICENTER":39.6835,"MEAN_ANOMALY":48.8681,"EPHEMERIS_TYPE":0,"CLASSIFICATION_TYPE":"U","NORAD_CAT_ID":67138,"ELEMENT_SET_NO":999,"REV_AT_EPOCH":560,"BSTAR":-0.037275425,"MEAN_MOTION_DOT":-0.01053979,"MEAN_MOTION_DDOT":0},{"OBJECT_NAME":"KUIPER-00184","OBJECT_ID":"2025-301G","EPOCH":"2026-03-05T05:18:23.731200","MEAN_MOTION":15.37154182,"ECCENTRICITY":0.0012398,"INCLINATION":51.8617,"RA_OF_ASC_NODE":87.2132,"ARG_OF_PERICENTER":34.4952,"MEAN_ANOMALY":325.6837,"EPHEMERIS_TYPE":0,"CLASSIFICATION_TYPE":"U","NORAD_CAT_ID":67139,"ELEMENT_SET_NO":999,"REV_AT_EPOCH":1332,"BSTAR":0.0011905,"MEAN_MOTION_DOT":0.00043949,"MEAN_MOTION_DDOT":0},{"OBJECT_NAME":"KUIPER-00186","OBJECT_ID":"2025-301H","EPOCH":"2026-03-05T12:37:45.784704","MEAN_MOTION":14.79977827,"ECCENTRICITY":6.25e-5,"INCLINATION":51.9022,"RA_OF_ASC_NODE":96.522,"ARG_OF_PERICENTER":107.3495,"MEAN_ANOMALY":252.7535,"EPHEMERIS_TYPE":0,"CLASSIFICATION_TYPE":"U","NORAD_CAT_ID":67140,"ELEMENT_SET_NO":999,"REV_AT_EPOCH":1294,"BSTAR":0.0019056,"MEAN_MOTION_DOT":0.00014352,"MEAN_MOTION_DDOT":0},{"OBJECT_NAME":"KUIPER-00187","OBJECT_ID":"2025-301J","EPOCH":"2026-03-05T06:04:46.108416","MEAN_MOTION":14.79948764,"ECCENTRICITY":6.74e-5,"INCLINATION":51.9018,"RA_OF_ASC_NODE":100.2399,"ARG_OF_PERICENTER":95.6772,"MEAN_ANOMALY":264.4268,"EPHEMERIS_TYPE":0,"CLASSIFICATION_TYPE":"U","NORAD_CAT_ID":67141,"ELEMENT_SET_NO":999,"REV_AT_EPOCH":1286,"BSTAR":-0.00075641,"MEAN_MOTION_DOT":-5.985e-5,"MEAN_MOTION_DDOT":0},{"OBJECT_NAME":"KUIPER-00188","OBJECT_ID":"2025-301K","EPOCH":"2026-03-05T07:45:51.542208","MEAN_MOTION":15.37876142,"ECCENTRICITY":0.0010313,"INCLINATION":51.8688,"RA_OF_ASC_NODE":86.4563,"ARG_OF_PERICENTER":30.0208,"MEAN_ANOMALY":330.1368,"EPHEMERIS_TYPE":0,"CLASSIFICATION_TYPE":"U","NORAD_CAT_ID":67142,"ELEMENT_SET_NO":999,"REV_AT_EPOCH":1306,"BSTAR":0.0013133,"MEAN_MOTION_DOT":0.00049679,"MEAN_MOTION_DDOT":0},{"OBJECT_NAME":"KUIPER-00191","OBJECT_ID":"2025-301L","EPOCH":"2026-03-05T22:00:01.999584","MEAN_MOTION":14.83311024,"ECCENTRICITY":0.00054076,"INCLINATION":51.8993,"RA_OF_ASC_NODE":89.8993,"ARG_OF_PERICENTER":47.5323,"MEAN_ANOMALY":346.6765,"EPHEMERIS_TYPE":0,"CLASSIFICATION_TYPE":"U","NORAD_CAT_ID":67143,"ELEMENT_SET_NO":999,"REV_AT_EPOCH":498,"BSTAR":0.0023332164,"MEAN_MOTION_DOT":0.00019118,"MEAN_MOTION_DDOT":0},{"OBJECT_NAME":"KUIPER-00196","OBJECT_ID":"2025-301M","EPOCH":"2026-03-05T08:15:55.816128","MEAN_MOTION":15.38615916,"ECCENTRICITY":0.0003784,"INCLINATION":51.87,"RA_OF_ASC_NODE":85.8732,"ARG_OF_PERICENTER":9.9788,"MEAN_ANOMALY":350.1274,"EPHEMERIS_TYPE":0,"CLASSIFICATION_TYPE":"U","NORAD_CAT_ID":67144,"ELEMENT_SET_NO":999,"REV_AT_EPOCH":1307,"BSTAR":0.0012661,"MEAN_MOTION_DOT":0.0004898,"MEAN_MOTION_DDOT":0},{"OBJECT_NAME":"KUIPER-00204","OBJECT_ID":"2025-301N","EPOCH":"2026-03-05T12:48:37.072224","MEAN_MOTION":15.25954009,"ECCENTRICITY":0.0003051,"INCLINATION":51.8847,"RA_OF_ASC_NODE":90.0007,"ARG_OF_PERICENTER":332.451,"MEAN_ANOMALY":27.631,"EPHEMERIS_TYPE":0,"CLASSIFICATION_TYPE":"U","NORAD_CAT_ID":67145,"ELEMENT_SET_NO":999,"REV_AT_EPOCH":1314,"BSTAR":0.0011787,"MEAN_MOTION_DOT":0.00030475,"MEAN_MOTION_DDOT":0},{"OBJECT_NAME":"KUIPER-00210","OBJECT_ID":"2025-301P","EPOCH":"2026-03-05T22:00:01.999584","MEAN_MOTION":14.84024092,"ECCENTRICITY":0.0010277,"INCLINATION":51.8992,"RA_OF_ASC_NODE":89.9002,"ARG_OF_PERICENTER":61.3796,"MEAN_ANOMALY":133.9948,"EPHEMERIS_TYPE":0,"CLASSIFICATION_TYPE":"U","NORAD_CAT_ID":67146,"ELEMENT_SET_NO":999,"REV_AT_EPOCH":566,"BSTAR":0.0040075779,"MEAN_MOTION_DOT":0.00033671,"MEAN_MOTION_DDOT":0},{"OBJECT_NAME":"KUIPER-00221","OBJECT_ID":"2025-301Q","EPOCH":"2026-03-05T02:01:39.805536","MEAN_MOTION":14.7998519,"ECCENTRICITY":6.121e-5,"INCLINATION":51.9008,"RA_OF_ASC_NODE":100.9697,"ARG_OF_PERICENTER":107.2753,"MEAN_ANOMALY":252.8276,"EPHEMERIS_TYPE":0,"CLASSIFICATION_TYPE":"U","NORAD_CAT_ID":67147,"ELEMENT_SET_NO":999,"REV_AT_EPOCH":1284,"BSTAR":0.00067593303,"MEAN_MOTION_DOT":4.942e-5,"MEAN_MOTION_DDOT":0},{"OBJECT_NAME":"KUIPER-00232","OBJECT_ID":"2025-301R","EPOCH":"2026-03-05T22:00:01.999584","MEAN_MOTION":15.14891154,"ECCENTRICITY":0.00027598,"INCLINATION":51.8817,"RA_OF_ASC_NODE":84.1464,"ARG_OF_PERICENTER":131.7541,"MEAN_ANOMALY":317.8024,"EPHEMERIS_TYPE":0,"CLASSIFICATION_TYPE":"U","NORAD_CAT_ID":67148,"ELEMENT_SET_NO":999,"REV_AT_EPOCH":538,"BSTAR":-0.08990933,"MEAN_MOTION_DOT":-0.01543242,"MEAN_MOTION_DDOT":0},{"OBJECT_NAME":"KUIPER-00241","OBJECT_ID":"2025-301S","EPOCH":"2026-03-05T22:00:01.999584","MEAN_MOTION":14.79964986,"ECCENTRICITY":0.00010856,"INCLINATION":51.9011,"RA_OF_ASC_NODE":92.2942,"ARG_OF_PERICENTER":91.7702,"MEAN_ANOMALY":356.5255,"EPHEMERIS_TYPE":0,"CLASSIFICATION_TYPE":"U","NORAD_CAT_ID":67149,"ELEMENT_SET_NO":999,"REV_AT_EPOCH":578,"BSTAR":0.00181849,"MEAN_MOTION_DOT":0.0001368,"MEAN_MOTION_DDOT":0}]
